CCSDS_OMM_VERS = 2.0
CREATION_DATE  = 
ORIGINATOR     = 

OBJECT_NAME    = STARLINK-36415
OBJECT_ID      = 2026-012AC
CENTER_NAME    = EARTH
REF_FRAME      = TEME
TIME_SYSTEM    = UTC
MEAN_ELEMENT_THEORY = SGP/SGP4

EPOCH          = 2026-02-11T06:00:00.999648
MEAN_MOTION    = 15.50706844
ECCENTRICITY   = .00016705
INCLINATION    = 42.9996
RA_OF_ASC_NODE = 104.2635
ARG_OF_PERICENTER = 286.6895
MEAN_ANOMALY   = 7.4432

EPHEMERIS_TYPE = 0
CLASSIFICATION_TYPE = U
NORAD_CAT_ID   = 67519
ELEMENT_SET_NO = 999
REV_AT_EPOCH   = 497
BSTAR          = -.58816382E-2
MEAN_MOTION_DOT = -.332664E-2
MEAN_MOTION_DDOT = 0

CCSDS_OMM_VERS = 2.0
CREATION_DATE  = 
ORIGINATOR     = 

OBJECT_NAME    = STARLINK-36547
OBJECT_ID      = 2026-012AD
CENTER_NAME    = EARTH
REF_FRAME      = TEME
TIME_SYSTEM    = UTC
MEAN_ELEMENT_THEORY = SGP/SGP4

EPOCH          = 2026-02-11T06:00:00.999648
MEAN_MOTION    = 15.50599152
ECCENTRICITY   = .00014491
INCLINATION    = 42.9999
RA_OF_ASC_NODE = 104.3169
ARG_OF_PERICENTER = 281.0876
MEAN_ANOMALY   = 351.7931

EPHEMERIS_TYPE = 0
CLASSIFICATION_TYPE = U
NORAD_CAT_ID   = 67520
ELEMENT_SET_NO = 999
REV_AT_EPOCH   = 476
BSTAR          = -.15719214E-2
MEAN_MOTION_DOT = -.91554E-3
MEAN_MOTION_DDOT = 0

CCSDS_OMM_VERS = 2.0
CREATION_DATE  = 
ORIGINATOR     = 

OBJECT_NAME    = STARLINK-36444
OBJECT_ID      = 2026-012AE
CENTER_NAME    = EARTH
REF_FRAME      = TEME
TIME_SYSTEM    = UTC
MEAN_ELEMENT_THEORY = SGP/SGP4

EPOCH          = 2026-02-11T06:00:00.999648
MEAN_MOTION    = 15.50507847
ECCENTRICITY   = .00012933
INCLINATION    = 43.0000
RA_OF_ASC_NODE = 104.4433
ARG_OF_PERICENTER = 310.0200
MEAN_ANOMALY   = 271.9124

EPHEMERIS_TYPE = 0
CLASSIFICATION_TYPE = U
NORAD_CAT_ID   = 67521
ELEMENT_SET_NO = 999
REV_AT_EPOCH   = 476
BSTAR          = .11577404E-2
MEAN_MOTION_DOT = .67996E-3
MEAN_MOTION_DDOT = 0

CCSDS_OMM_VERS = 2.0
CREATION_DATE  = 
ORIGINATOR     = 

OBJECT_NAME    = HULIANWANG DIGUI-146
OBJECT_ID      = 2026-013A
CENTER_NAME    = EARTH
REF_FRAME      = TEME
TIME_SYSTEM    = UTC
MEAN_ELEMENT_THEORY = SGP/SGP4

EPOCH          = 2026-02-11T03:07:01.855776
MEAN_MOTION    = 13.79334138
ECCENTRICITY   = .00018492
INCLINATION    = 50.0090
RA_OF_ASC_NODE = 94.1189
ARG_OF_PERICENTER = 327.5429
MEAN_ANOMALY   = 32.5351

EPHEMERIS_TYPE = 0
CLASSIFICATION_TYPE = U
NORAD_CAT_ID   = 67522
ELEMENT_SET_NO = 999
REV_AT_EPOCH   = 318
BSTAR          = .9982859E-4
MEAN_MOTION_DOT = -.39E-6
MEAN_MOTION_DDOT = 0

CCSDS_OMM_VERS = 2.0
CREATION_DATE  = 
ORIGINATOR     = 

OBJECT_NAME    = HULIANWANG DIGUI-147
OBJECT_ID      = 2026-013B
CENTER_NAME    = EARTH
REF_FRAME      = TEME
TIME_SYSTEM    = UTC
MEAN_ELEMENT_THEORY = SGP/SGP4

EPOCH          = 2026-02-10T11:25:49.930176
MEAN_MOTION    = 13.79841227
ECCENTRICITY   = .00014297
INCLINATION    = 50.0031
RA_OF_ASC_NODE = 96.6367
ARG_OF_PERICENTER = 37.3556
MEAN_ANOMALY   = 322.7437

EPHEMERIS_TYPE = 0
CLASSIFICATION_TYPE = U
NORAD_CAT_ID   = 67523
ELEMENT_SET_NO = 999
REV_AT_EPOCH   = 309
BSTAR          = .97685528E-4
MEAN_MOTION_DOT = -.41E-6
MEAN_MOTION_DDOT = 0

CCSDS_OMM_VERS = 2.0
CREATION_DATE  = 
ORIGINATOR     = 

OBJECT_NAME    = HULIANWANG DIGUI-148
OBJECT_ID      = 2026-013C
CENTER_NAME    = EARTH
REF_FRAME      = TEME
TIME_SYSTEM    = UTC
MEAN_ELEMENT_THEORY = SGP/SGP4

EPOCH          = 2026-02-10T11:19:38.424864
MEAN_MOTION    = 13.80236269
ECCENTRICITY   = .00002608
INCLINATION    = 50.0093
RA_OF_ASC_NODE = 96.6367
ARG_OF_PERICENTER = 66.4014
MEAN_ANOMALY   = 293.6907

EPHEMERIS_TYPE = 0
CLASSIFICATION_TYPE = U
NORAD_CAT_ID   = 67524
ELEMENT_SET_NO = 999
REV_AT_EPOCH   = 309
BSTAR          = .11941544E-3
MEAN_MOTION_DOT = -.17E-6
MEAN_MOTION_DDOT = 0

CCSDS_OMM_VERS = 2.0
CREATION_DATE  = 
ORIGINATOR     = 

OBJECT_NAME    = HULIANWANG DIGUI-149
OBJECT_ID      = 2026-013D
CENTER_NAME    = EARTH
REF_FRAME      = TEME
TIME_SYSTEM    = UTC
MEAN_ELEMENT_THEORY = SGP/SGP4

EPOCH          = 2026-02-11T02:53:24.328608
MEAN_MOTION    = 13.80209628
ECCENTRICITY   = .00011715
INCLINATION    = 50.0079
RA_OF_ASC_NODE = 94.0645
ARG_OF_PERICENTER = 96.0548
MEAN_ANOMALY   = 264.0480

EPHEMERIS_TYPE = 0
CLASSIFICATION_TYPE = U
NORAD_CAT_ID   = 67525
ELEMENT_SET_NO = 999
REV_AT_EPOCH   = 318
BSTAR          = .10961738E-3
MEAN_MOTION_DOT = -.28E-6
MEAN_MOTION_DDOT = 0

CCSDS_OMM_VERS = 2.0
CREATION_DATE  = 
ORIGINATOR     = 

OBJECT_NAME    = HULIANWANG DIGUI-150
OBJECT_ID      = 2026-013E
CENTER_NAME    = EARTH
REF_FRAME      = TEME
TIME_SYSTEM    = UTC
MEAN_ELEMENT_THEORY = SGP/SGP4

EPOCH          = 2026-02-11T02:43:51.283200
MEAN_MOTION    = 13.80527320
ECCENTRICITY   = .00004966
INCLINATION    = 50.0043
RA_OF_ASC_NODE = 94.0145
ARG_OF_PERICENTER = 48.1598
MEAN_ANOMALY   = 311.9339

EPHEMERIS_TYPE = 0
CLASSIFICATION_TYPE = U
NORAD_CAT_ID   = 67526
ELEMENT_SET_NO = 999
REV_AT_EPOCH   = 320
BSTAR          = .10853327E-3
MEAN_MOTION_DOT = -.28E-6
MEAN_MOTION_DDOT = 0

CCSDS_OMM_VERS = 2.0
CREATION_DATE  = 
ORIGINATOR     = 

OBJECT_NAME    = HULIANWANG DIGUI-151
OBJECT_ID      = 2026-013F
CENTER_NAME    = EARTH
REF_FRAME      = TEME
TIME_SYSTEM    = UTC
MEAN_ELEMENT_THEORY = SGP/SGP4

EPOCH          = 2026-02-11T02:38:10.483584
MEAN_MOTION    = 13.82443532
ECCENTRICITY   = .00009405
INCLINATION    = 50.0061
RA_OF_ASC_NODE = 94.0095
ARG_OF_PERICENTER = 94.1032
MEAN_ANOMALY   = 265.9971

EPHEMERIS_TYPE = 0
CLASSIFICATION_TYPE = U
NORAD_CAT_ID   = 67527
ELEMENT_SET_NO = 999
REV_AT_EPOCH   = 318
BSTAR          = .12951683E-3
MEAN_MOTION_DOT = -.2E-7
MEAN_MOTION_DDOT = 0

CCSDS_OMM_VERS = 2.0
CREATION_DATE  = 
ORIGINATOR     = 

OBJECT_NAME    = HULIANWANG DIGUI-152
OBJECT_ID      = 2026-013G
CENTER_NAME    = EARTH
REF_FRAME      = TEME
TIME_SYSTEM    = UTC
MEAN_ELEMENT_THEORY = SGP/SGP4

EPOCH          = 2026-02-10T09:18:59.893344
MEAN_MOTION    = 13.81454105
ECCENTRICITY   = .00014442
INCLINATION    = 50.0085
RA_OF_ASC_NODE = 96.8367
ARG_OF_PERICENTER = 58.6311
MEAN_ANOMALY   = 301.4725

EPHEMERIS_TYPE = 0
CLASSIFICATION_TYPE = U
NORAD_CAT_ID   = 67528
ELEMENT_SET_NO = 999
REV_AT_EPOCH   = 308
BSTAR          = .12389113E-3
MEAN_MOTION_DOT = -.1E-6
MEAN_MOTION_DDOT = 0

CCSDS_OMM_VERS = 2.0
CREATION_DATE  = 
ORIGINATOR     = 

OBJECT_NAME    = HULIANWANG DIGUI-153
OBJECT_ID      = 2026-013H
CENTER_NAME    = EARTH
REF_FRAME      = TEME
TIME_SYSTEM    = UTC
MEAN_ELEMENT_THEORY = SGP/SGP4

EPOCH          = 2026-02-10T09:10:17.265792
MEAN_MOTION    = 13.82103239
ECCENTRICITY   = .00004412
INCLINATION    = 50.0069
RA_OF_ASC_NODE = 96.7952
ARG_OF_PERICENTER = 258.0121
MEAN_ANOMALY   = 102.0724

EPHEMERIS_TYPE = 0
CLASSIFICATION_TYPE = U
NORAD_CAT_ID   = 67529
ELEMENT_SET_NO = 999
REV_AT_EPOCH   = 307
BSTAR          = .18141627E-4
MEAN_MOTION_DOT = -.123E-5
MEAN_MOTION_DDOT = 0

CCSDS_OMM_VERS = 2.0
CREATION_DATE  = 
ORIGINATOR     = 

OBJECT_NAME    = HULIANWANG DIGUI-154
OBJECT_ID      = 2026-013J
CENTER_NAME    = EARTH
REF_FRAME      = TEME
TIME_SYSTEM    = UTC
MEAN_ELEMENT_THEORY = SGP/SGP4

EPOCH          = 2026-02-10T07:22:29.621856
MEAN_MOTION    = 13.82387020
ECCENTRICITY   = .00008015
INCLINATION    = 50.0119
RA_OF_ASC_NODE = 97.0845
ARG_OF_PERICENTER = 34.8680
MEAN_ANOMALY   = 325.2268

EPHEMERIS_TYPE = 0
CLASSIFICATION_TYPE = U
NORAD_CAT_ID   = 67530
ELEMENT_SET_NO = 999
REV_AT_EPOCH   = 306
BSTAR          = .17704616E-3
MEAN_MOTION_DOT = .49E-6
MEAN_MOTION_DDOT = 0

CCSDS_OMM_VERS = 2.0
CREATION_DATE  = 
ORIGINATOR     = 

OBJECT_NAME    = CZ-12 R/B
OBJECT_ID      = 2026-013K
CENTER_NAME    = EARTH
REF_FRAME      = TEME
TIME_SYSTEM    = UTC
MEAN_ELEMENT_THEORY = SGP/SGP4

EPOCH          = 2026-02-10T14:59:01.845024
MEAN_MOTION    = 14.14458023
ECCENTRICITY   = .00689071
INCLINATION    = 49.9940
RA_OF_ASC_NODE = 92.7401
ARG_OF_PERICENTER = 204.5348
MEAN_ANOMALY   = 155.2276

EPHEMERIS_TYPE = 0
CLASSIFICATION_TYPE = U
NORAD_CAT_ID   = 67531
ELEMENT_SET_NO = 999
REV_AT_EPOCH   = 315
BSTAR          = .52226018E-4
MEAN_MOTION_DOT = -.52E-6
MEAN_MOTION_DDOT = 0

CCSDS_OMM_VERS = 2.0
CREATION_DATE  = 
ORIGINATOR     = 

OBJECT_NAME    = STARLINK-36587
OBJECT_ID      = 2026-014A
CENTER_NAME    = EARTH
REF_FRAME      = TEME
TIME_SYSTEM    = UTC
MEAN_ELEMENT_THEORY = SGP/SGP4

EPOCH          = 2026-02-11T05:11:01.779648
MEAN_MOTION    = 15.80922461
ECCENTRICITY   = .00011891
INCLINATION    = 97.2830
RA_OF_ASC_NODE = 285.8086
ARG_OF_PERICENTER = 103.8677
MEAN_ANOMALY   = 256.2724

EPHEMERIS_TYPE = 0
CLASSIFICATION_TYPE = U
NORAD_CAT_ID   = 67532
ELEMENT_SET_NO = 999
REV_AT_EPOCH   = 440
BSTAR          = .14843458E-2
MEAN_MOTION_DOT = .295457E-2
MEAN_MOTION_DDOT = 0

CCSDS_OMM_VERS = 2.0
CREATION_DATE  = 
ORIGINATOR     = 

OBJECT_NAME    = STARLINK-36417
OBJECT_ID      = 2026-014B
CENTER_NAME    = EARTH
REF_FRAME      = TEME
TIME_SYSTEM    = UTC
MEAN_ELEMENT_THEORY = SGP/SGP4

EPOCH          = 2026-02-11T05:39:12.290688
MEAN_MOTION    = 15.75251675
ECCENTRICITY   = .00013332
INCLINATION    = 97.2845
RA_OF_ASC_NODE = 285.7816
ARG_OF_PERICENTER = 96.4059
MEAN_ANOMALY   = 263.7358

EPHEMERIS_TYPE = 0
CLASSIFICATION_TYPE = U
NORAD_CAT_ID   = 67533
ELEMENT_SET_NO = 999
REV_AT_EPOCH   = 440
BSTAR          = .12500908E-2
MEAN_MOTION_DOT = .191069E-2
MEAN_MOTION_DDOT = 0

